IRIDIUM 144             
1 43249U 18030A   25298.94791084  .00000425  00000+0  14486-3 0  9998
2 43249  86.4009  28.3149 0001936  96.4127 263.7290 14.34218621396566
IRIDIUM 149             
1 43250U 18030B   25298.95425296  .00000290  00000+0  96589-4 0  9995
2 43250  86.4010  28.2820 0002001  95.0435 265.0989 14.34217383396582
IRIDIUM 157             
1 43251U 18030C   25298.76397555  .00000097  00000+0  27520-4 0  9995
2 43251  86.4008  28.4093 0002207 100.9226 259.2218 14.34217893396537
IRIDIUM 140             
1 43252U 18030D   25298.78300489  .00000399  00000+0  13538-3 0  9996
2 43252  86.4009  28.4146 0001985  91.5068 268.6355 14.34216633396592
IRIDIUM 145             
1 43253U 18030E   25298.77031683  .00000423  00000+0  14405-3 0  9995
2 43253  86.4010  28.3927 0001744  92.8765 267.2630 14.34218988396521
IRIDIUM 146             
1 43254U 18030F   25298.96059526  .00000373  00000+0  12612-3 0  9995
2 43254  86.4010  28.3262 0001856  95.6670 264.4738 14.34216376396565
IRIDIUM 148             
1 43255U 18030G   25298.78934568  .00000384  00000+0  13013-3 0  9992
2 43255  86.4011  28.4372 0002036  99.7594 260.3832 14.34218075396570
IRIDIUM 142             
1 43256U 18030H   25298.75763128  .00000417  00000+0  14196-3 0  9992
2 43256  86.4008  28.3480 0001647  94.4461 265.6923 14.34218918396539
